LUCH 5V                 
1 39727U 14023A   19007.74285601 -.00000263  00000-0  00000-0 0  9990
2 39727   1.5515 301.1483 0003497  23.5018 144.3720  1.00265945535274
KAZSAT-3                
1 39728U 14023B   19007.54087020  .00000063  00000-0  00000+0 0  9990
2 39728   0.0170 348.2432 0001258 156.1195 215.6320  1.00271844 17193
EUTELSAT 3B             
1 39773U 14030A   19008.21921012  .00000022  00000-0  00000+0 0  9996
2 39773   0.0656  36.5562 0003748 194.6552 318.2688  1.00271322 16976
ASIASAT 8               
1 40107U 14046A   19007.71355337 -.00000031  00000-0  00000-0 0  9993
2 40107   0.0131 324.1744 0001700 308.3117  87.4805  1.00271373 74901
ASIASAT 6               
1 40141U 14052A   19008.53094918 -.00000359  00000-0  00000+0 0  9996
2 40141   0.0112  58.3357 0000491 286.2541  74.2164  1.00269578 15928
OPTUS 10                
1 40146U 14054A   19008.26790409 -.00000145  00000-0  00000+0 0  9994
2 40146   0.0836  83.6244 0003016 180.7289  95.6123  1.00268711 15880
MEASAT-3B               
1 40147U 14054B   19008.44661744 -.00000239  00000-0  00000+0 0  9998
2 40147   0.0252 359.5565 0002421 316.3224  44.0880  1.00272418 15932
LUCH (OLYMP)            
1 40258U 14058A   19008.70436069  .00000074  00000-0  00000+0 0  9990
2 40258   0.0357 110.7492 0001073 193.6825 114.1564  1.00272131 15707
HIMAWARI-8              
1 40267U 14060A   19008.31046210 -.00000273  00000-0  00000+0 0  9997
2 40267   0.0229  30.0180 0000915 247.5536  82.4180  1.00270709 15626
IRNSS-1C                
1 40269U 14061A   19007.08676481 -.00000159  00000-0  00000+0 0  9995
2 40269   2.1065 220.4298 0020615   7.3403 352.8720  1.00273179 15569
INTELSAT 30 (IS-30)     
1 40271U 14062A   19007.84200866 -.00000148  00000-0  00000-0 0  9992
2 40271   0.0162  45.1990 0002173  69.0237 200.9250  1.00270712 15399
ARSAT 1                 
1 40272U 14062B   19007.84663216 -.00000257  00000-0  00000-0 0  9996
2 40272   0.0163 106.5177 0001034 171.2893  62.2633  1.00272130 15366
EXPRESS-AM6             
1 40277U 14064A   19007.24216266  .00000099  00000-0  00000+0 0  9998
2 40277   0.0522 209.6041 0000484 213.6195 183.4746  1.00274022 15418
GSAT-16                 
1 40332U 14078A   19007.55052871  .00000087  00000-0  00000-0 0  9997
2 40332   0.0447  97.4943 0003009 354.5403 267.9861  1.00273011 14886
DIRECTV 14              
1 40333U 14078B   19008.57267627 -.00000122  00000-0  00000+0 0  9998
2 40333   0.0427 279.5202 0000694 198.0154  97.2228  1.00270228 15000
YAMAL 401               
1 40345U 14082A   19007.95070479 -.00000226  00000-0  00000-0 0  9990
2 40345   0.0215  90.8398 0000664 302.3638 146.2137  1.00270842 15165
ASTRA 2G                
1 40364U 14089A   19007.62474545  .00000152  00000-0  00000-0 0  9991
2 40364   0.0362 329.7911 0001750  58.3526 331.8519  1.00270746 14714
FENGYUN 2G              
1 40367U 14090A   19008.09621161 -.00000301  00000-0  00000+0 0  9992
2 40367   0.8727 105.6788 0003040 272.3385 223.7694  1.00273096 14790
MUOS-3                  
1 40374U 15002A   19007.68218633 -.00000122  00000-0  00000-0 0  9996
2 40374   3.3949 336.7504 0052459 183.7712 176.4921  1.00270428 14357
INMARSAT 5-F2           
1 40384U 15005A   19008.49605477 -.00000283  00000-0  00000+0 0  9993
2 40384   0.0241  37.9004 0000256 249.3373 304.0688  1.00271075 14439
ABS-3A                  
1 40424U 15010A   19007.71110037 -.00000024  00000-0  00000-0 0  9995
2 40424   0.0216  37.7542 0001224 160.4870 161.7543  1.00270466 14163
EUTELSAT 115 WEST B     
1 40425U 15010B   19008.02116067 -.00000022  00000-0  00000+0 0  9997
2 40425   0.0071 215.3254 0000203  70.1235  74.5349  1.00266871 14198
EXPRESS-AM7             
1 40505U 15012A   19008.51507223  .00000154  00000-0  00000+0 0  9995
2 40505   0.0041  10.7362 0002107 255.0769  67.3551  1.00271112 14113
IRNSS-1D                
1 40547U 15018A   19007.18830000 -.00000288  00000-0  00000-0 0  9991
2 40547  28.7466 285.9105 0018006 183.2954 176.7685  1.00279224 13744
BD-17                   
1 40549U 15019A   19007.88221950 -.00000182  00000-0  00000-0 0  9992
2 40549  53.7759 327.2531 0038551 191.3992   1.6783  1.00287817 13833
THOR 7                  
1 40613U 15022A   19007.70461065 -.00000006  00000-0  00000-0 0  9997
2 40613   0.0162 112.0613 0002372 176.8619  71.0370  1.00272936 13575
TURKMENALEM52E/MONACOSAT
1 40617U 15023A   19007.55872656  .00000106  00000-0  00000+0 0  9996
2 40617   0.0120  41.6795 0001373 237.1493  81.1416  1.00270921 13599
DIRECTV 15              
1 40663U 15026A   19006.98499013 -.00000114  00000-0  00000+0 0  9998
2 40663   0.0156  72.2082 0000646  87.0815 200.6990  1.00272528 13286
SKY MEXICO-1            
1 40664U 15026B   19007.92108086 -.00000232  00000-0  00000+0 0  9992
2 40664   0.0252  38.3617 0001895 259.9431  61.6761  1.00269365 13299
METEOSAT-11 (MSG-4)     
1 40732U 15034A   19007.34905984  .00000003  00000-0  00000-0 0  9991
2 40732   1.0163 231.7914 0001638  97.0437 263.5942  1.00279352 12793
STAR ONE C4             
1 40733U 15034B   19006.89946900 -.00000263  00000-0  00000-0 0  9993
2 40733   0.0482  74.3130 0002647 252.4617  33.1946  1.00273162 12783
WGS F7 (USA 263)        
1 40746U 15036A   19008.21511539  .00000020  00000-0  00000+0 0  9992
2 40746   0.0231  44.3342 0000341 293.5209  22.1434  1.00268055 12632
INTELSAT 34 (IS-34)     
1 40874U 15039A   19007.85660589 -.00000283  00000-0  00000-0 0  9999
2 40874   0.0176  73.1347 0000334 223.9599  62.8880  1.00274669 12429
EUTELSAT 8 WEST B       
1 40875U 15039B   19007.72491992 -.00000063  00000-0  00000-0 0  9992
2 40875   0.0701  40.6831 0003001 245.6131  73.6567  1.00272100 12428
GSAT-6                  
1 40880U 15041A   19007.47261669 -.00000163  00000-0  00000-0 0  9990
2 40880   0.0841  98.6167 0010111 173.9876  87.2654  1.00272225 12407
INMARSAT 5-F3           
1 40882U 15042A   19008.20259584  .00000052  00000-0  00000+0 0  9993
2 40882   0.0237  38.8237 0000496  47.7763 273.4057  1.00269147 12315
MUOS-4                  
1 40887U 15044A   19007.42571212 -.00000087  00000-0  00000-0 0  9998
2 40887   3.5843 334.7194 0057989   0.3778 359.9028  1.00271915 12326
TJS-1                   
1 40892U 15046A   19008.70059183 -.00000153  00000-0  10000-3 0  9994
2 40892   0.0618 105.5966 0004431 254.3503 155.2406  1.00271775 12316
EXPRESS-AM8             
1 40895U 15048A   19007.92994260 -.00000109  00000-0  00000+0 0  9992
2 40895   0.0422 203.1735 0000418  92.0185 132.7548  1.00271238 12136
BD-20                   
1 40938U 15053A   19008.43731045 -.00000123  00000-0  00000+0 0  9999
2 40938  53.3997 290.2148 0046178 179.3616 250.3735  1.00260206 12125
SKY MUSTER (NBN1A)      
1 40940U 15054A   19008.20792672 -.00000276  00000-0  00000+0 0  9990
2 40940   0.0166 343.6008 0001505 302.4207  36.5182  1.00271389 12048
ARSAT 2                 
1 40941U 15054B   19007.92723639 -.00000223  00000-0  00000+0 0  9998
2 40941   0.0136  93.9259 0001269 184.0804  81.9654  1.00271948 12075
MORELOS 3               
1 40946U 15056A   19007.92862901 -.00000036  00000-0  00000+0 0  9993
2 40946   5.6323 328.2049 0002935   0.2578 359.9243  1.00271864 12044
APSTAR 9                
1 40982U 15059A   19008.39176734 -.00000263  00000-0  00000+0 0  9992
2 40982   0.0310 138.3431 0001513 141.3911 110.9605  1.00272978 11912
TURKSAT 4B              
1 40984U 15060A   19007.56438597  .00000117  00000-0  00000-0 0  9990
2 40984   0.0185  27.0572 0001986 259.6041  73.3029  1.00272869 11871
CHINASAT 2C (ZX 2C)     
1 41021U 15063A   19008.02518400 -.00000321  00000-0  00000+0 0  9997
2 41021   0.0685 250.8444 0004112 105.7058 223.2151  1.00268058 11761
GSAT-15                 
1 41028U 15065A   19007.44372767 -.00000256  00000-0  00000+0 0  9992
2 41028   0.0534 103.6407 0001602 179.5513  76.7761  1.00271176 11618
BADR-7 (ARABSAT-6B)     
1 41029U 15065B   19007.63063559  .00000147  00000-0  00000-0 0  9999
2 41029   0.0667 257.8106 0005446 350.1444 111.9730  1.00274567 11529
LAOSAT 1                
1 41034U 15067A   19008.34407457 -.00000340  00000-0  00000+0 0  9990
2 41034   0.0083 256.4322 0002010 356.4393 107.1065  1.00271301 11608
TELSTAR 12V             
1 41036U 15068A   19007.74436633 -.00000117  00000-0  00000-0 0  9997
2 41036   0.0228  21.6941 0001884 269.7453  68.5405  1.00270821 11379
CHINASAT 1C (ZX 1C)     
1 41103U 15073A   19008.16434297 -.00000149  00000-0  00000+0 0  9993
2 41103   0.4054  98.2885 0004220 182.5630 327.3050  1.00270858 11426
ELEKTRO-L 2             
1 41105U 15074A   19007.94791324 -.00000095  00000-0  00000-0 0  9999
2 41105   0.0712 216.3720 0000817 114.4485 193.6408  1.00272462 11273
COSMOS 2513             
1 41121U 15075A   19007.94878560 -.00000136  00000-0  00000-0 0  9992
2 41121   0.0871 103.3838 0003101 190.8137 234.8107  1.00271632 11354
EXPRESS-AMU1            
1 41191U 15082A   19007.96699907  .00000158  00000-0  00000-0 0  9998
2 41191   0.0115  67.0476 0002105 195.1641 229.2167  1.00273974 11262
GAOFEN 4                
1 41194U 15083A   19008.09743292 -.00000332  00000-0  00000+0 0  9998
2 41194   0.0632  90.6475 0003368 157.2013   0.3082  1.00270073 11243
BELINTERSAT-1           
1 41238U 16001A   19007.56017308  .00000108  00000-0  00000-0 0  9992
2 41238   0.0408 292.0370 0001507 312.5849 115.3486  1.00273607 11028
IRNSS-1E                
1 41241U 16003A   19006.68661667 -.00000306  00000-0  00000-0 0  9994
2 41241  28.9700 104.9920 0021862 181.7087 178.2222  1.00274409 10839
INTELSAT 29E (IS-29E)   
1 41308U 16004A   19007.84131937 -.00000280  00000-0  00000-0 0  9991
2 41308   0.0073 338.1289 0001468 311.8491  69.9922  1.00269651 10938
EUTELSAT 9B             
1 41310U 16005A   19007.67777289  .00000063  00000-0  00000-0 0  9990
2 41310   0.0602  77.2205 0005415 216.8765  65.8320  1.00270925 10867
